NORAD_CAT_ID,OBJECT_NAME,OBJECT_TYPE,EPOCH,MEAN_MOTION,ECCENTRICITY,INCLINATION,RA_OF_ASC_NODE,ARG_OF_PERICENTER,MEAN_ANOMALY,BSTAR,MEAN_MOTION_DOT,MEAN_MOTION_DDOT,TLE_LINE0,TLE_LINE1,TLE_LINE2,SEMIMAJOR_AXIS,PERIOD,APOGEE,PERIGEE,DECAYED
52648.0,STARLINK-3854,PAYLOAD,2022-06-26 14:00:01,15.73227078,0.0002652,53.2143,228.0279,16.5056,128.8429,-9.9177e-05,-0.00014536,0.0,0 STARLINK-3854,1 52648U 22052BC  22177.58335648 -.00014536  00000-0 -99177-4 0  9995,2 52648  53.2143 228.0279 0002652  16.5056 128.8429 15.73227078  1303,6727.818,91.532,351.467,347.899,0.0
52648.0,STARLINK-3854,PAYLOAD,2022-06-26 22:00:00,15.73174647,0.0002575,53.2145,226.3764,20.3153,213.9414,0.00028077,0.00038927,0.0,0 STARLINK-3854,1 52648U 22052BC  22177.91667824  .00038927  00000-0  28077-3 0  9994,2 52648  53.2145 226.3764 0002575  20.3153 213.9414 15.73174647  1303,6727.967,91.535,351.565,348.1,0.0
52648.0,STARLINK-3854,PAYLOAD,2022-06-27 04:00:00,15.73205574,0.000242,53.216,225.1371,22.7146,188.1432,-0.00057326,-0.00080343,0.0,0 STARLINK-3854,1 52648U 22052BC  22178.16667824 -.00080343  00000-0 -57326-3 0  9992,2 52648  53.2160 225.1371 0002420  22.7146 188.1432 15.73205574  7200,6727.879,91.533,351.372,348.116,0.0
52648.0,STARLINK-3854,PAYLOAD,2022-06-27 12:00:00,15.73151012,0.0002842,53.214,223.492,24.0701,275.6651,0.00040983,0.00057176,0.0,0 STARLINK-3854,1 52648U 22052BC  22178.50001157  .00057176  00000-0  40983-3 0  9998,2 52648  53.2140 223.4920 0002842  24.0701 275.6651 15.73151012  7256,6728.035,91.536,351.81199999999984,347.98800000000006,0.0
52648.0,STARLINK-3854,PAYLOAD,2022-06-27 14:00:01,15.73148346,0.0002844,53.2137,223.0796,23.2422,28.7164,0.0005853,0.00082158,0.0,0 STARLINK-3854,1 52648U 22052BC  22178.58334491  .00082158  00000-0  58530-3 0  9991,2 52648  53.2137 223.0796 0002844  23.2422  28.7164 15.73148346  1304,6728.042,91.536,351.821,347.994,0.0
52648.0,STARLINK-3854,PAYLOAD,2022-06-27 22:00:00,15.73187218,0.0002574,53.2135,221.4281,24.7502,116.1246,0.00046122,0.00064579,0.0,0 STARLINK-3854,1 52648U 22052BC  22178.91667824  .00064579  00000-0  46122-3 0  9998,2 52648  53.2135 221.4281 0002574  24.7502 116.1246 15.73187218  1302,6727.932,91.534,351.528,348.065,0.0
52648.0,STARLINK-3854,PAYLOAD,2022-06-28 04:00:00,15.73219471,0.0002558,53.2137,220.1911,27.3223,90.2323,0.0002308,0.00031923,0.0,0 STARLINK-3854,1 52648U 22052BC  22179.16667824  .00031923  00000-0  23080-3 0  9991,2 52648  53.2137 220.1911 0002558  27.3223  90.2323 15.73219471  7368,6727.84,91.532,351.426,347.9840000000001,0.0
52648.0,STARLINK-3854,PAYLOAD,2022-06-28 12:00:00,15.73232899,0.0002797,53.2137,218.5435,22.8533,183.6572,-0.00029689,-0.00042148,0.0,0 STARLINK-3854,1 52648U 22052BC  22179.50001157 -.00042148  00000-0 -29689-3 0  9994,2 52648  53.2137 218.5435 0002797  22.8533 183.6572 15.73232899  7417,6727.801,91.531,351.548,347.785,0.0
52648.0,STARLINK-3854,PAYLOAD,2022-06-28 14:00:01,15.7321746,0.0002791,53.2135,218.1311,21.0079,297.7465,-0.00016459,-0.00023679,0.0,0 STARLINK-3854,1 52648U 22052BC  22179.58334491 -.00023679  00000-0 -16459-3 0  9991,2 52648  53.2135 218.1311 0002791  21.0079 297.7465 15.73217460  1301,6727.845,91.532,351.588,347.833,0.0
52648.0,STARLINK-3854,PAYLOAD,2022-06-28 22:00:00,15.73175017,0.0002561,53.2138,216.4793,21.8671,25.8388,0.0004483,0.00062705,0.0,0 STARLINK-3854,1 52648U 22052BC  22179.91667824  .00062705  00000-0  44830-3 0  9992,2 52648  53.2138 216.4793 0002561  21.8671  25.8388 15.73175017  1305,6727.965999999999,91.535,351.55400000000014,348.108,0.0
52648.0,STARLINK-3854,PAYLOAD,2022-06-29 04:00:00,15.7322459,0.0002633,53.2139,215.2423,24.2636,0.1233,8.2402e-05,0.00010971,0.0,0 STARLINK-3854,1 52648U 22052BC  22180.16667824  .00010971  00000-0  82402-4 0  9997,2 52648  53.2139 215.2423 0002633  24.2636   0.1233 15.73224590  7516,6727.825,91.532,351.462,347.9190000000001,0.0
52648.0,STARLINK-3854,PAYLOAD,2022-06-29 14:00:01,15.73237553,0.0002836,53.2131,213.1821,20.3554,205.2196,-0.00019433,-0.00027855,0.0,0 STARLINK-3854,1 52648U 22052BC  22180.58334491 -.00027855  00000-0 -19433-3 0  9998,2 52648  53.2131 213.1821 0002836  20.3554 205.2196 15.73237553  1308,6727.788000000001,91.531,351.561,347.745,0.0
52648.0,STARLINK-3854,PAYLOAD,2022-06-29 22:00:00,15.73176139,0.0002546,53.2131,211.5304,20.0996,294.4538,0.00034804,0.00048462,0.0,0 STARLINK-3854,1 52648U 22052BC  22180.91667824  .00048462  00000-0  34804-3 0  9998,2 52648  53.2131 211.5304 0002546  20.0996 294.4538 15.73176139  1303,6727.9630000000025,91.535,351.541,348.115,0.0
52648.0,STARLINK-3854,PAYLOAD,2022-06-30 04:00:00,15.73218929,0.0002546,53.2134,210.2937,21.5343,269.701,6.079600000000001e-05,7.926e-05,0.0,0 STARLINK-3854,1 52648U 22052BC  22181.16667824  .00007926  00000-0  60796-4 0  9996,2 52648  53.2134 210.2937 0002546  21.5343 269.7010 15.73218929  7676,6727.840999999999,91.532,351.4190000000001,347.99300000000005,0.0
52648.0,STARLINK-3854,PAYLOAD,2022-06-30 14:00:01,15.73235878,0.00028,53.2132,208.2333,17.939,114.4773,-0.00022776,-0.0003252,0.0,0 STARLINK-3854,1 52648U 22052BC  22181.58334491 -.00032520  00000-0 -22776-3 0  9998,2 52648  53.2132 208.2333 0002800  17.9390 114.4773 15.73235878  1303,6727.793000000002,91.531,351.542,347.774,0.0
52648.0,STARLINK-3854,PAYLOAD,2022-06-30 22:00:00,15.73166275,0.0002565,53.2136,206.5814,16.358,205.0349,0.00035101,0.00048862,0.0,0 STARLINK-3854,1 52648U 22052BC  22181.91667824  .00048862  00000-0  35101-3 0  9994,2 52648  53.2136 206.5814 0002565  16.3580 205.0349 15.73166275  1304,6727.991,91.535,351.582,348.131,0.0
52648.0,STARLINK-3854,PAYLOAD,2022-07-01 04:00:00,15.73207054,0.0002623,53.2139,205.3448,19.0702,178.9959,1.6201e-05,1.653e-05,0.0,0 STARLINK-3854,1 52648U 22052BC  22182.16667824  .00001653  00000-0  16201-4 0  9990,2 52648  53.2139 205.3448 0002623  19.0702 178.9959 15.73207054  7838,6727.875,91.533,351.505,347.975,0.0
52648.0,STARLINK-3854,PAYLOAD,2022-07-01 14:00:01,15.73224141,0.000289,53.2131,203.2841,16.2475,22.9906,1.4122999999999996e-06,-4.25e-06,0.0,0 STARLINK-3854,1 52648U 22052BC  22182.58334491 -.00000425  00000-0  14123-5 0  9996,2 52648  53.2131 203.2841 0002890  16.2475  22.9906 15.73224141  1308,6727.826,91.532,351.636,347.747,0.0
52648.0,STARLINK-3854,PAYLOAD,2022-07-01 22:00:00,15.73171417,0.000253,53.2132,201.6325,15.5765,112.6293,0.00015282,0.00020855,0.0,0 STARLINK-3854,1 52648U 22052BC  22182.91667824  .00020855  00000-0  15282-3 0  9995,2 52648  53.2132 201.6325 0002530  15.5765 112.6293 15.73171417  1306,6727.977,91.535,351.5440000000001,348.139,0.0
52648.0,STARLINK-3854,PAYLOAD,2022-07-02 14:00:01,15.73217682,0.0002812,53.2135,198.3353,14.5225,291.5264,0.00027628,0.00038365,0.0,0 STARLINK-3854,1 52648U 22052BC  22183.58334491  .00038365  00000-0  27628-3 0  9992,2 52648  53.2135 198.3353 0002812  14.5225 291.5264 15.73217682  1305,6727.845,91.532,351.602,347.8180000000001,0.0
52648.0,STARLINK-3854,PAYLOAD,2022-07-02 22:00:00,15.73249043,0.0002642,53.214,196.6835,18.8598,16.1753,0.00025912,0.00035981,0.0,0 STARLINK-3854,1 52648U 22052BC  22183.91667824  .00035981  00000-0  25912-3 0  9993,2 52648  53.2140 196.6835 0002642  18.8598  16.1753 15.73249043  1308,6727.755,91.53,351.398,347.843,0.0
52648.0,STARLINK-3854,PAYLOAD,2022-07-03 14:00:01,15.73243561,0.0002828,53.2137,193.386,16.1251,196.8991,-0.00093018,-0.00129453,0.0,0 STARLINK-3854,1 52648U 22052BC  22184.58334491 -.00129453  00000-0 -93018-3 0  9990,2 52648  53.2137 193.3860 0002828  16.1251 196.8991 15.73243561  1308,6727.771,91.531,351.539,347.733,0.0
52648.0,STARLINK-3854,PAYLOAD,2022-07-03 20:00:01,15.73146884,0.0002566999999999,53.2141,192.1472,11.9043,177.8234,-0.00046103,-0.00064694,0.0,0 STARLINK-3854,1 52648U 22052BC  22184.83334491 -.00064694  00000-0 -46103-3 0  9996,2 52648  53.2141 192.1472 0002567  11.9043 177.8234 15.73146884  8251,6728.047,91.536,351.639,348.185,0.0
52648.0,STARLINK-3854,PAYLOAD,2022-07-03 22:00:00,15.73115769,0.0002505,53.214,191.7346,11.7789,290.1688,-0.00013209,-0.00019053,0.0,0 STARLINK-3854,1 52648U 22052BC  22184.91667824 -.00019053  00000-0 -13209-3 0  9994,2 52648  53.2140 191.7346 0002505  11.7789 290.1688 15.73115769  1301,6728.135,91.538,351.686,348.315,0.0
52648.0,STARLINK-3854,PAYLOAD,2022-07-04 12:00:00,15.73094468,0.0002831,53.2141,188.8508,9.9679,357.4089,0.00047082,0.00065684,0.0,0 STARLINK-3854,1 52648U 22052BC  22185.50001157  .00065684  00000-0  47082-3 0  9996,2 52648  53.2141 188.8508 0002831   9.9679 357.4089 15.73094468  8354,6728.196,91.539,351.966,348.156,0.0
52648.0,STARLINK-3854,PAYLOAD,2022-07-04 14:00:01,15.73126025,0.0002791,53.2142,188.4379,10.7702,108.804,9.804e-05,0.00013118,0.0,0 STARLINK-3854,1 52648U 22052BC  22185.58334491  .00013118  00000-0  98040-4 0  9990,2 52648  53.2142 188.4379 0002791  10.7702 108.8040 15.73126025  1307,6728.106,91.537,351.849,348.093,0.0
52648.0,STARLINK-3854,PAYLOAD,2022-07-04 22:00:00,15.73117464,0.0002603,53.2146,186.7865,15.7931,192.6428,0.0012629,0.00179839,0.0,0 STARLINK-3854,1 52648U 22052BC  22185.91667824  .00179839  00000-0  12629-2 0  9996,2 52648  53.2146 186.7865 0002603  15.7931 192.6428 15.73117464  1301,6728.13,91.538,351.747,348.244,0.0
52648.0,STARLINK-3854,PAYLOAD,2022-07-05 06:00:00,15.73247095,0.0002866,53.2148,185.1389,18.8675,278.4758,0.00013479,0.00018377,0.0,0 STARLINK-3854,1 52648U 22052BC  22186.25001157  .00018377  00000-0  13479-3 0  9999,2 52648  53.2148 185.1389 0002866  18.8675 278.4758 15.73247095  8475,6727.761,91.53,351.55400000000014,347.6980000000001,0.0
52648.0,STARLINK-3854,PAYLOAD,2022-07-05 14:00:01,15.73310843,0.000288,53.2144,183.4892,16.0528,10.2684,-0.00068357,-0.00095948,0.0,0 STARLINK-3854,1 52648U 22052BC  22186.58334491 -.00095948  00000-0 -68357-3 0  9991,2 52648  53.2144 183.4892 0002880  16.0528  10.2684 15.73310843  1301,6727.579000000002,91.527,351.38199999999995,347.50699999999995,0.0
